GLOBALSTAR M069         
1 31573U 07020C   26165.02978078 -.00000067  00000+0  23458-3 0  9997
2 31573  52.0031 261.0641 0002405 141.2525  29.3939 12.23471008878414
GLOBALSTAR M072         
1 31574U 07020D   26165.10441310 -.00000104  00000+0 -27730-3 0  9991
2 31574  51.9921 108.4521 0001405 323.9216  49.6867 11.91658465874618
GLOBALSTAR M066         
1 32265U 07048C   26164.97796816 -.00000143  00000+0 -41048-3 0  9998
2 32265  51.9600  67.1246 0005436  37.2256 335.0313 12.30387931859838
GLOBALSTAR M079         
1 37188U 10054A   26165.11673720 -.00000116  00000+0 -66588-4 0  9990
2 37188  52.0029 118.0164 0000642  16.9430 356.4067 12.62266081722166
GLOBALSTAR M074         
1 37189U 10054B   26165.14297698 -.00000127  00000+0 -13189-3 0  9990
2 37189  52.0004 117.2017 0000479  48.3847 324.4683 12.62268371722777
GLOBALSTAR M076         
1 37190U 10054C   26165.16941421 -.00000113  00000+0 -50604-4 0  9993
2 37190  52.0023 117.3241 0000670  38.3904 334.8007 12.62261778722494
GLOBALSTAR M077         
1 37191U 10054D   26165.21555051 -.00000057  00000+0  38899-3 0  9997
2 37191  51.9923 186.8389 0002779 167.2982 270.3291 11.67547756720793
GLOBALSTAR M075         
1 37192U 10054E   26165.19751851 -.00000105  00000+0 -86831-5 0  9997
2 37192  51.9920 159.2955 0000087  20.6531  60.1504 12.62267401721566
GLOBALSTAR M073         
1 37193U 10054F   26165.02445609 -.00000113  00000+0 -52291-4 0  9992
2 37193  52.0066  73.9195 0000867  41.8960 330.6527 12.62262106723531
GLOBALSTAR M083         
1 37739U 11033A   26164.87922141 -.00000094  00000+0  52997-4 0  9999
2 37739  51.9872  22.5949 0000897  61.9280 311.7794 12.62262989692538
GLOBALSTAR M088         
1 37740U 11033B   26165.12541588 -.00000097  00000+0  39585-4 0  9993
2 37740  52.0223 288.2676 0000756 121.7532  49.5467 12.62268653688104
GLOBALSTAR M091         
1 37741U 11033C   26164.97984811 -.00000080  00000+0  13032-3 0  9996
2 37741  51.9992 251.6806 0000376 146.1422  24.3689 12.62263849688875
GLOBALSTAR M085         
1 37742U 11033D   26164.88776637 -.00000074  00000+0  16846-3 0  9991
2 37742  52.0105 203.2496 0000107 240.7016 291.2624 12.62264087689379
GLOBALSTAR M081         
1 37743U 11033E   26164.83497618 -.00000070  00000+0  18653-3 0  9990
2 37743  51.9936 205.8505 0000159 120.3766  51.2023 12.62264965689519
GLOBALSTAR M089         
1 37744U 11033F   26165.17106795 -.00000096  00000+0  45037-4 0  9997
2 37744  51.9904 158.9854 0000343  91.7326 348.6914 12.62267209690404
GLOBALSTAR M084         
1 38040U 11080A   26164.93210872 -.00000095  00000+0  48070-4 0  9993
2 38040  52.0025  27.1917 0001072  80.5821 293.3855 12.62267505668351
GLOBALSTAR M080         
1 38041U 11080B   26164.92308514 -.00000094  00000+0  55935-4 0  9991
2 38041  52.0077  28.9364 0000352  70.3685  32.5991 12.62269311668473
GLOBALSTAR M082         
1 38042U 11080C   26164.76030412 -.00000094  00000+0  57212-4 0  9993
2 38042  52.0094 344.9320 0000557  91.2024 281.8139 12.62263736669167
GLOBALSTAR M092         
1 38043U 11080D   26165.05079022 -.00000109  00000+0 -29709-4 0  9995
2 38043  52.0093  74.4446 0000644  57.7646 314.8823 12.62266943667657
GLOBALSTAR M090         
1 38044U 11080E   26165.21764104 -.00000100  00000+0  22895-4 0  9995
2 38044  52.0142 337.4953 0000805  87.8027  83.3926 12.62269037669330
GLOBALSTAR M086         
1 38045U 11080F   26165.23955601 -.00000092  00000+0  68256-4 0  9993
2 38045  51.9915 337.3632 0001667  62.8638 108.7512 12.62286687669285
GLOBALSTAR M097         
1 39072U 13005A   26164.91628597 -.00000099  00000+0  28009-4 0  9997
2 39072  52.0048 253.2938 0000349 127.0315 233.0583 12.62247200616495
GLOBALSTAR M093         
1 39073U 13005B   26164.96873323 -.00000077  00000+0  14868-3 0  9995
2 39073  52.0100 246.4796 0000227 100.7670 259.3222 12.62265864616451
GLOBALSTAR M094         
1 39074U 13005C   26165.12700563 -.00000109  00000+0 -26909-4 0  9997
2 39074  51.9937 160.1165 0000327 352.0037   8.0824 12.62268553618086
GLOBALSTAR M096         
1 39075U 13005D   26165.14047529 -.00000070  00000+0  18868-3 0  9996
2 39075  52.0053 208.8757 0000067 199.3406 160.7458 12.62265599617005
GLOBALSTAR M078         
1 39076U 13005E   26164.63836867 -.00000189  00000+0 -47637-3 0  9999
2 39076  51.9890 294.4173 0000529 214.5079 145.5753 12.62257981615569
GLOBALSTAR M095         
1 39077U 13005F   26165.06105047 -.00000103  00000+0  44730-5 0  9995
2 39077  52.0094 290.7305 0000288 127.8015 232.2878 12.62263358615479
GLOBALSTAR M087         
1 52888U 22064A   26164.99512062 -.00000107  00000+0 -15571-4 0  9990
2 52888  52.0004  72.1703 0000700  31.1522 328.9386 12.62269004190736
